[{"OBJECT_NAME":"GOES 18","OBJECT_ID":"2022-021A","EPOCH":"2026-02-01T18:47:38.530176","MEAN_MOTION":1.00270999,"ECCENTRICITY":6.872e-5,"INCLINATION":0.0053,"RA_OF_ASC_NODE":163.5347,"ARG_OF_PERICENTER":195.2213,"MEAN_ANOMALY":278.1114,"EPHEMERIS_TYPE":0,"CLASSIFICATION_TYPE":"U","NORAD_CAT_ID":51850,"ELEMENT_SET_NO":999,"REV_AT_EPOCH":523,"BSTAR":0,"MEAN_MOTION_DOT":8.7e-7,"MEAN_MOTION_DDOT":0},{"OBJECT_NAME":"GOES 19","OBJECT_ID":"2024-119A","EPOCH":"2026-02-01T21:41:18.804768","MEAN_MOTION":1.00271513,"ECCENTRICITY":0.00011279,"INCLINATION":0.003,"RA_OF_ASC_NODE":32.7647,"ARG_OF_PERICENTER":310.4683,"MEAN_ANOMALY":38.9874,"EPHEMERIS_TYPE":0,"CLASSIFICATION_TYPE":"U","NORAD_CAT_ID":60133,"ELEMENT_SET_NO":999,"REV_AT_EPOCH":560,"BSTAR":0,"MEAN_MOTION_DOT":-2.58e-6,"MEAN_MOTION_DDOT":0}]
